0 FENGYUN 1C DEB
1 31491U 99025BWE 13281.40830881  .00001752  00000-0  12061-2 0  4172
2 31491 099.3200 354.2843 0066453 309.2874 050.2407 13.99685250327456
0 FENGYUN 1C DEB
1 31491U 99025BWE 13283.40982980  .00001902  00000-0  13069-2 0  4189
2 31491 099.3200 356.3225 0066587 303.7845 055.6988 13.99696439327733
0 FENGYUN 1C DEB
1 31491U 99025BWE 13285.41133879  .00001879  00000-0  12910-2 0  4195
2 31491 099.3203 358.3613 0066784 298.2729 061.1705 13.99702802328010
0 FENGYUN 1C DEB
1 31491U 99025BWE 13287.41283832  .00002136  00000-0  14631-2 0  4203
2 31491 099.3201 000.3992 0066932 292.7621 066.6479 13.99710023328299
0 FENGYUN 1C DEB
1 31491U 99025BWE 13289.41432676  .00002219  00000-0  15179-2 0  4218
2 31491 099.3203 002.4364 0067086 287.2581 072.1248 13.99721805328579
0 FENGYUN 1C DEB
1 31491U 99025BWE 13291.41580164  .00002342  00000-0  16000-2 0  4229
2 31491 099.3205 004.4736 0067256 281.7761 077.5863 13.99730386328851
0 FENGYUN 1C DEB
1 31491U 99025BWE 13294.41799193  .00002509  00000-0  17113-2 0  4238
2 31491 099.3208 007.5300 0067505 273.5746 085.7698 13.99744665329273
